{"type":"FeatureCollection","features":[{"type":"Feature","properties":{"kecamatan":"Genuk"},"geometry":{"type":"Polygon","coordinates":[[[110.4410881,-6.9499639],[110.4420376,-6.9495805],[110.4429677,-6.949234],[110.4433648,-6.9491254],[110.4441652,-6.9491492],[110.4447597,-6.9492413],[110.4453312,-6.9494705],[110.4464511,-6.9500888],[110.4474797,-6.9505928],[110.4477769,-6.9507527],[110.4480433,-6.9508856],[110.4483222,-6.9510415],[110.4492567,-6.9515051],[110.450331,-6.952229],[110.4504571,-6.9524311],[110.4508155,-6.9528285],[110.4514155,-6.953749],[110.4516588,-6.9545189],[110.451698,-6.9553882],[110.4516063,-6.9570994],[110.4515433,-6.9584892],[110.4515111,-6.959879],[110.4515004,-6.9606777],[110.4514837,-6.9611365],[110.4512485,-6.9625882],[110.4513904,-6.9627171],[110.4517807,-6.9630579],[110.452238,-6.9634533],[110.4525384,-6.9637156],[110.4529287,-6.9640497],[110.4533994,-6.9644637],[110.4538849,-6.964883],[110.4543167,-6.9652691],[110.4548129,-6.9657124],[110.4552019,-6.9660625],[110.4553434,-6.966189],[110.4558308,-6.9666083],[110.4572974,-6.9678719],[110.4577609,-6.9683126],[110.4582328,-6.9688154],[110.4590052,-6.9695263],[110.459408,-6.9698881],[110.4598381,-6.9702744],[110.4603906,-6.9707736],[110.4609042,-6.9712395],[110.4613227,-6.9716109],[110.4620321,-6.9722525],[110.4625297,-6.9727118],[110.4626757,-6.9728372],[110.4631063,-6.973207],[110.4634282,-6.9735052],[110.463962,-6.9739738],[110.4643294,-6.9742959],[110.4646835,-6.9746127],[110.4650885,-6.9749881],[110.4655364,-6.9753821],[110.4658774,-6.9756486],[110.4661506,-6.9759466],[110.4666039,-6.9763566],[110.4670733,-6.9767746],[110.4676098,-6.9772431],[110.4681677,-6.9777516],[110.4688248,-6.9783294],[110.4691279,-6.9785929],[110.4698279,-6.9792346],[110.4705897,-6.9799117],[110.4707265,-6.9800333],[110.4713917,-6.9806083],[110.4718181,-6.9809864],[110.4725477,-6.9816653],[110.4731056,-6.9821711],[110.4738298,-6.9827755],[110.4739531,-6.9828859],[110.4743475,-6.9832387],[110.4748413,-6.9836914],[110.4765778,-6.9853262],[110.4786787,-6.9872154],[110.4794919,-6.9877699],[110.4799419,-6.9881624],[110.4805541,-6.9886964],[110.4806936,-6.9888206],[110.4812595,-6.9893247],[110.4819086,-6.9899024],[110.4825282,-6.9904429],[110.4834482,-6.9912895],[110.4842341,-6.9919603],[110.4850173,-6.9926898],[110.48583,-6.9934512],[110.4866374,-6.9941514],[110.4869048,-6.9944213],[110.4871684,-6.9946519],[110.488193,-6.9955278],[110.4890674,-6.996361],[110.489569,-6.9967764],[110.4908189,-6.9979024],[110.4909863,-6.9980533],[110.4920666,-6.9990276],[110.4931068,-6.9969867],[110.4935414,-6.9970665],[110.4936916,-6.9966406],[110.4944533,-6.9966832],[110.4946893,-6.9961348],[110.4946518,-6.9960336],[110.4945016,-6.9959218],[110.4943299,-6.9958579],[110.4942334,-6.9957887],[110.4941958,-6.9954745],[110.494287,-6.9953467],[110.4945445,-6.9953467],[110.4947323,-6.9953041],[110.4950273,-6.995187],[110.4951668,-6.9948995],[110.4952538,-6.9945132],[110.4955855,-6.9945446],[110.4959276,-6.9946278],[110.4963007,-6.9947111],[110.496653,-6.9948047],[110.4968395,-6.9949499],[110.4969805,-6.9951005],[110.4974487,-6.9949711],[110.4976901,-6.9947305],[110.4976907,-6.9941684],[110.4981231,-6.9931491],[110.4986056,-6.9928686],[110.4988067,-6.9927082],[110.4992893,-6.9922671],[110.4999725,-6.9922277],[110.5003342,-6.9921879],[110.5009396,-6.9922475],[110.5013115,-6.9927989],[110.5014255,-6.9929457],[110.5014383,-6.9929147],[110.5014536,-6.9926987],[110.5014154,-6.992527],[110.5013925,-6.9923835],[110.5014078,-6.992301],[110.5014154,-6.9922304],[110.5014459,-6.9920907],[110.5014231,-6.9919458],[110.5014154,-6.9918471],[110.5013925,-6.9917674],[110.5013925,-6.9917031],[110.5013849,-6.991653],[110.5013925,-6.991508],[110.5014994,-6.9910317],[110.5015146,-6.9907203],[110.5014841,-6.9903469],[110.5014841,-6.9903164],[110.5014307,-6.9900847],[110.5013315,-6.9895883],[110.5013315,-6.9893937],[110.5015756,-6.9890027],[110.5018045,-6.9885254],[110.5019953,-6.9881168],[110.5025751,-6.9866562],[110.5027963,-6.9859653],[110.5028678,-6.9857625],[110.5020701,-6.9855507],[110.5017855,-6.9854527],[110.5012547,-6.985246],[110.5008581,-6.9850794],[110.5009981,-6.9848573],[110.5011602,-6.9845601],[110.501302,-6.984172],[110.50147,-6.9836247],[110.5015343,-6.9834087],[110.501557,-6.9830626],[110.5015933,-6.9827302],[110.5016362,-6.9824122],[110.5017176,-6.9821673],[110.5018659,-6.9816584],[110.5019528,-6.9806589],[110.5020037,-6.9801291],[110.5020398,-6.9795124],[110.5020496,-6.9794207],[110.5020941,-6.9793037],[110.5021683,-6.9792118],[110.5029154,-6.9794182],[110.5039778,-6.9796579],[110.5041361,-6.9790935],[110.503995,-6.9788482],[110.5037311,-6.9785051],[110.5035943,-6.9781962],[110.5035199,-6.9776746],[110.5035152,-6.9775357],[110.50363,-6.9776023],[110.5038257,-6.9777092],[110.5040315,-6.9779833],[110.5042434,-6.9783267],[110.5044124,-6.9786808],[110.5046135,-6.9789843],[110.5047798,-6.9792585],[110.5049863,-6.9794715],[110.5052438,-6.9796233],[110.5053645,-6.9792851],[110.505504,-6.9789124],[110.5056435,-6.9785397],[110.5057722,-6.9773629],[110.5059037,-6.9764338],[110.5061692,-6.9751931],[110.5055147,-6.9739578],[110.5053806,-6.9724296],[110.5060834,-6.969895],[110.5054665,-6.969666],[110.5057669,-6.9685265],[110.5047987,-6.9681593],[110.5031276,-6.9675255],[110.5020691,-6.9672063],[110.5016436,-6.967078],[110.5010027,-6.9658096],[110.5007891,-6.9652937],[110.5006365,-6.9646704],[110.5004687,-6.9638102],[110.5004458,-6.9628003],[110.5005984,-6.961941],[110.5009188,-6.9608882],[110.500921,-6.9608841],[110.5013906,-6.9599511],[110.5016283,-6.9594062],[110.5020861,-6.9588692],[110.5030069,-6.9583241],[110.5036613,-6.9576984],[110.5044445,-6.9580738],[110.5047744,-6.9576612],[110.5050856,-6.9571047],[110.5061746,-6.9572831],[110.5084947,-6.957536],[110.5086905,-6.957134],[110.5088836,-6.9566255],[110.5088353,-6.9563326],[110.5084544,-6.9553209],[110.5079555,-6.9543091],[110.5074888,-6.953111],[110.5070758,-6.9522697],[110.5070007,-6.9519981],[110.5070651,-6.9514922],[110.5069095,-6.951407],[110.505799,-6.9523069],[110.50493,-6.9529513],[110.5041254,-6.9535956],[110.5029827,-6.9544263],[110.5026116,-6.9547226],[110.5019957,-6.9552144],[110.5013229,-6.9558238],[110.5013167,-6.9558095],[110.5011576,-6.955108],[110.5010511,-6.9547481],[110.5008982,-6.9542048],[110.5007075,-6.9538176],[110.500532,-6.9532855],[110.5004557,-6.9531047],[110.5003031,-6.9527223],[110.5002773,-6.9526246],[110.4996125,-6.9528453],[110.4992349,-6.9529627],[110.4988574,-6.9530213],[110.4984798,-6.9530916],[110.4971996,-6.9534497],[110.4959961,-6.9537667],[110.4950522,-6.9540014],[110.4946274,-6.9540717],[110.4941672,-6.9542598],[110.4935065,-6.9543888],[110.4928854,-6.9544421],[110.4921979,-6.9545773],[110.4907594,-6.9549577],[110.4901755,-6.9551191],[110.490261,-6.9548842],[110.4900625,-6.9548603],[110.4899177,-6.9549881],[110.4895985,-6.9548203],[110.4897299,-6.953766],[110.489974,-6.9526903],[110.4901859,-6.9520034],[110.4905587,-6.9510875],[110.4907787,-6.9500571],[110.4910067,-6.9491625],[110.491291,-6.9483451],[110.4915109,-6.9474878],[110.4908645,-6.9477035],[110.4903173,-6.9479138],[110.4891801,-6.9483212],[110.487957,-6.9487472],[110.4882199,-6.9474292],[110.488362,-6.9466438],[110.4874662,-6.9463908],[110.4858541,-6.9459116],[110.4856691,-6.9466891],[110.4845425,-6.9464281],[110.4832444,-6.9459755],[110.4818898,-6.9456001],[110.480817,-6.9453631],[110.4795241,-6.9449744],[110.4782528,-6.9445271],[110.4783386,-6.9441064],[110.4760909,-6.9430787],[110.4741034,-6.9421168],[110.4722714,-6.9413054],[110.4710913,-6.9407942],[110.4701076,-6.9397958],[110.469895,-6.9395801],[110.4688181,-6.9382541],[110.4681421,-6.9374348],[110.4674274,-6.9365341],[110.4668264,-6.9355536],[110.4654957,-6.9319879],[110.4635865,-6.9281859],[110.4542471,-6.9330901],[110.4507224,-6.9344648],[110.4489218,-6.9352],[110.447329,-6.9359021],[110.4467288,-6.9357273],[110.4460716,-6.9360815],[110.4455888,-6.9366672],[110.4453957,-6.9367285],[110.445224,-6.9369334],[110.4448485,-6.9373755],[110.4449236,-6.9379825],[110.4446876,-6.9394629],[110.4444945,-6.9407409],[110.444237,-6.9417314],[110.443486,-6.943936],[110.4424238,-6.9466411],[110.4416299,-6.9483984],[110.4410881,-6.9499639]]]}},{"type":"Feature","properties":{"kecamatan":"Semarang Utara"},"geometry":{"type":"Polygon","coordinates":[[[110.3937846,-6.9455229],[110.3963811,-6.9508798],[110.3973681,-6.9529939],[110.397867,-6.9540535],[110.3983873,-6.9553155],[110.3991705,-6.9576692],[110.3994028,-6.9586479],[110.3999805,-6.9610824],[110.4000727,-6.9626479],[110.4000878,-6.9629035],[110.4001624,-6.9645964],[110.4002166,-6.9658282],[110.4003319,-6.9669877],[110.4003972,-6.9673749],[110.4005787,-6.968452],[110.4006001,-6.968673],[110.400694,-6.969871],[110.4007161,-6.9701501],[110.4007637,-6.9707523],[110.4008549,-6.9714019],[110.4009542,-6.9720968],[110.4010209,-6.9726645],[110.4010615,-6.97301],[110.4011553,-6.9739578],[110.4012616,-6.9748035],[110.4013002,-6.9751106],[110.4014021,-6.9765323],[110.4014852,-6.9774881],[110.4024562,-6.9774055],[110.4026246,-6.9773911],[110.4030168,-6.9773576],[110.4037008,-6.9773177],[110.4042533,-6.9772671],[110.4047884,-6.9772245],[110.4049561,-6.9772087],[110.4053798,-6.9771686],[110.4061013,-6.9771153],[110.4068939,-6.9770541],[110.4074746,-6.9769569],[110.4079668,-6.9768571],[110.4084979,-6.976704],[110.4089941,-6.9765469],[110.4092419,-6.9764366],[110.4095533,-6.976298],[110.4096113,-6.9762671],[110.4100335,-6.9760424],[110.4104163,-6.9758331],[110.4106071,-6.9757096],[110.4111318,-6.9753262],[110.4112133,-6.9752655],[110.4115462,-6.9750174],[110.4118413,-6.9747924],[110.4122932,-6.974425],[110.4125668,-6.9741894],[110.412709,-6.9744064],[110.4129423,-6.9745861],[110.4131716,-6.9747152],[110.4133983,-6.9747938],[110.4135941,-6.9743824],[110.4137148,-6.9741788],[110.4138717,-6.9740177],[110.4141292,-6.9738779],[110.4147193,-6.9736037],[110.4150818,-6.9734476],[110.4151458,-6.97342],[110.4156916,-6.9731298],[110.416224,-6.9729008],[110.4169589,-6.972568],[110.4172919,-6.9724038],[110.4176094,-6.9722472],[110.4181565,-6.9720009],[110.4186004,-6.971784],[110.4190993,-6.9715284],[110.4192349,-6.97145],[110.4195529,-6.9712662],[110.4197095,-6.9711756],[110.420003,-6.9710352],[110.4201628,-6.9709613],[110.4205675,-6.9707736],[110.420769,-6.9706831],[110.4214141,-6.9703556],[110.4221892,-6.9700308],[110.4227525,-6.9698204],[110.4228786,-6.9697905],[110.4233319,-6.9697299],[110.4236591,-6.96969],[110.4239729,-6.9698018],[110.4243028,-6.9694291],[110.4246435,-6.969067],[110.4248473,-6.9688753],[110.4250056,-6.9687342],[110.4260141,-6.9685957],[110.4270279,-6.968468],[110.4275475,-6.9684418],[110.4277682,-6.9684307],[110.428412,-6.9683295],[110.4285201,-6.9683036],[110.4287261,-6.9682441],[110.4288572,-6.968223],[110.4289844,-6.9681719],[110.4290949,-6.9681276],[110.4291901,-6.9680894],[110.4294447,-6.9679869],[110.4295868,-6.9679301],[110.4296459,-6.967901],[110.4303431,-6.9675574],[110.4309869,-6.9671155],[110.4309693,-6.9666786],[110.4309443,-6.9656782],[110.43093,-6.9643123],[110.4308903,-6.9632337],[110.4308689,-6.9620356],[110.4308291,-6.9608853],[110.4308206,-6.9606404],[110.4307884,-6.9594743],[110.4307723,-6.9585637],[110.4307616,-6.9580685],[110.4308226,-6.9575879],[110.4307947,-6.9563967],[110.4307547,-6.955669],[110.4307852,-6.9549623],[110.4307848,-6.9543737],[110.4349628,-6.95284],[110.4352386,-6.9527155],[110.4354985,-6.9525889],[110.4362279,-6.9521898],[110.4365605,-6.9519155],[110.4370607,-6.9516666],[110.4374751,-6.9514882],[110.4382718,-6.9512047],[110.439114,-6.9508266],[110.4397087,-6.9505605],[110.4402137,-6.9503261],[110.4410881,-6.9499639],[110.4416299,-6.9483984],[110.4424238,-6.9466411],[110.443486,-6.943936],[110.444237,-6.9417314],[110.4444945,-6.9407409],[110.4446876,-6.9394629],[110.4449236,-6.9379825],[110.4448485,-6.9373755],[110.4433143,-6.937482],[110.4427242,-6.9378121],[110.4421556,-6.9383872],[110.4416942,-6.939218],[110.4416299,-6.9396014],[110.4419732,-6.9395801],[110.4423165,-6.9394842],[110.442971,-6.939431],[110.4431212,-6.9394949],[110.443089,-6.9398144],[110.4429603,-6.9400806],[110.4424989,-6.9422639],[110.4418123,-6.94433],[110.4415119,-6.9453525],[110.4413134,-6.9460234],[110.4405194,-6.9460234],[110.4400045,-6.9457678],[110.4397309,-6.9457891],[110.4394787,-6.9460074],[110.4393285,-6.9461565],[110.4390603,-6.9454217],[110.4387492,-6.9444579],[110.4385292,-6.9435845],[110.4383469,-6.9426154],[110.4381645,-6.9419551],[110.4372579,-6.9422],[110.4368287,-6.9430201],[110.4364559,-6.9432757],[110.4361635,-6.9434035],[110.4357398,-6.9436378],[110.4356432,-6.9438934],[110.4355064,-6.9442662],[110.4354903,-6.9443886],[110.4355332,-6.9444099],[110.4356298,-6.9444925],[110.4356539,-6.9446096],[110.4356137,-6.9447001],[110.4355144,-6.9448013],[110.4355735,-6.9449131],[110.4356217,-6.944977],[110.4355788,-6.9452273],[110.4355466,-6.9453924],[110.4355761,-6.9455362],[110.4355574,-6.9457119],[110.4353884,-6.9459036],[110.4351604,-6.946098],[110.4350394,-6.9463468],[110.4350102,-6.9464068],[110.435273,-6.9466385],[110.4351309,-6.9468222],[110.4350772,-6.9470192],[110.4349324,-6.9470192],[110.4347527,-6.9468808],[110.4345837,-6.9468595],[110.4342377,-6.9468568],[110.4340607,-6.9469207],[110.434168,-6.9472881],[110.4342887,-6.9474186],[110.4345328,-6.9475703],[110.4347956,-6.94777],[110.4350772,-6.9479138],[110.4353937,-6.9482093],[110.4357666,-6.9484969],[110.4361233,-6.9487898],[110.4365042,-6.9490507],[110.4367322,-6.9492637],[110.436928,-6.9495859],[110.4370406,-6.949924],[110.4369333,-6.9502675],[110.4366973,-6.9505737],[110.4365954,-6.9507041],[110.4364666,-6.9509997],[110.4364237,-6.9512766],[110.4363203,-6.9513108],[110.436303,-6.9513165],[110.4359114,-6.9508532],[110.4353482,-6.9501743],[110.43475,-6.9493755],[110.4340392,-6.9483558],[110.4340124,-6.9476902],[110.4337817,-6.9468382],[110.4336369,-6.9465133],[110.4333579,-6.9456933],[110.4327468,-6.9439345],[110.4323441,-6.9428231],[110.4307186,-6.9431798],[110.4292703,-6.9435845],[110.4285192,-6.9438508],[110.4278219,-6.941593],[110.4266631,-6.9418379],[110.4263091,-6.9409326],[110.4263413,-6.9383979],[110.4263949,-6.9356182],[110.4232836,-6.935533],[110.423305,-6.9389517],[110.4230475,-6.9425302],[110.4232192,-6.9470139],[110.4249895,-6.9489096],[110.4253393,-6.9492911],[110.4265129,-6.950571],[110.4260838,-6.9513058],[110.424217,-6.9502515],[110.4231763,-6.9495805],[110.4215991,-6.9483132],[110.4201615,-6.9474505],[110.4195177,-6.9476742],[110.419389,-6.9483558],[110.419389,-6.9492717],[110.4196894,-6.9505816],[110.420655,-6.9514975],[110.421803,-6.9522111],[110.4234767,-6.9532015],[110.424689,-6.9538086],[110.4239273,-6.9550972],[110.4220819,-6.9542452],[110.421567,-6.9535849],[110.4210198,-6.9523282],[110.4200864,-6.9524134],[110.4194212,-6.9510502],[110.4190457,-6.9510076],[110.4188365,-6.9515242],[110.4188392,-6.9508026],[110.4188499,-6.9497536],[110.4188445,-6.948441],[110.4188955,-6.9469234],[110.418933,-6.9457572],[110.4189813,-6.9438827],[110.4189813,-6.9427964],[110.4174042,-6.9427645],[110.4163259,-6.9427858],[110.4163849,-6.9448253],[110.4163957,-6.9458424],[110.4144001,-6.9460128],[110.4124743,-6.946279],[110.4106182,-6.9467157],[110.4091376,-6.9470405],[110.4076463,-6.9477541],[110.4075712,-6.9486753],[110.4073405,-6.9493409],[110.4068416,-6.9490747],[110.4060852,-6.9487711],[110.4053396,-6.94867],[110.4043901,-6.948638],[110.4038376,-6.9486433],[110.4034835,-6.9488031],[110.4032421,-6.9490267],[110.4030114,-6.9490587],[110.4024643,-6.948883],[110.4023516,-6.9486007],[110.402196,-6.9481375],[110.402019,-6.947163],[110.4019815,-6.9465399],[110.4019493,-6.9457572],[110.4019278,-6.9451022],[110.4018581,-6.9447135],[110.4012304,-6.9446602],[110.4002649,-6.9446229],[110.3989935,-6.9446815],[110.3977811,-6.9447028],[110.3966385,-6.9447454],[110.395571,-6.9447507],[110.3947234,-6.9448146],[110.3937846,-6.9455229]]]}},{"type":"Feature","properties":{"kecamatan":"Semarang Timur"},"geometry":{"type":"Polygon","coordinates":[[[110.4307547,-6.955669],[110.4307947,-6.9563967],[110.4308226,-6.9575879],[110.4307616,-6.9580685],[110.4307723,-6.9585637],[110.4307884,-6.9594743],[110.4308206,-6.9606404],[110.4308291,-6.9608853],[110.4308689,-6.9620356],[110.4308903,-6.9632337],[110.43093,-6.9643123],[110.4309443,-6.9656782],[110.4309693,-6.9666786],[110.4309869,-6.9671155],[110.4309868,-6.9674802],[110.4310291,-6.9688141],[110.4310083,-6.9697725],[110.4310593,-6.9704754],[110.4310718,-6.9707409],[110.4310888,-6.9711011],[110.4310874,-6.9718589],[110.4311405,-6.9722994],[110.4311444,-6.9723903],[110.4311666,-6.9729008],[110.4311766,-6.9733558],[110.4311794,-6.9734329],[110.4311818,-6.9735322],[110.4311855,-6.9736865],[110.4311865,-6.9737274],[110.4311934,-6.9740137],[110.4311666,-6.9744716],[110.4311829,-6.975233],[110.4311907,-6.9755951],[110.4312444,-6.9762101],[110.4312511,-6.9763828],[110.4312766,-6.9770408],[110.4313061,-6.9778368],[110.4313252,-6.9780438],[110.431335,-6.9781503],[110.4313651,-6.9784758],[110.431408,-6.97916],[110.4314455,-6.9799534],[110.4314532,-6.9802742],[110.4314643,-6.9807388],[110.4314858,-6.9812846],[110.4314975,-6.9816734],[110.4315126,-6.9821738],[110.4315475,-6.9830204],[110.4315488,-6.9831163],[110.4315636,-6.9841705],[110.4316034,-6.9854053],[110.4316065,-6.9855016],[110.4316601,-6.9861379],[110.4317036,-6.9868286],[110.4317245,-6.9871603],[110.4317996,-6.9882624],[110.4318593,-6.9892522],[110.4319176,-6.9904854],[110.4319355,-6.9909274],[110.4319578,-6.9914758],[110.43199,-6.9922372],[110.4320209,-6.9935084],[110.4319927,-6.9942925],[110.4327384,-6.994556],[110.4336755,-6.9949504],[110.4339024,-6.9950459],[110.4345884,-6.9953248],[110.4351255,-6.9955464],[110.4354689,-6.9956995],[110.435953,-6.9958952],[110.4365417,-6.9961414],[110.4368918,-6.9962825],[110.437223,-6.9964236],[110.4378206,-6.9966718],[110.4380049,-6.9967484],[110.4387967,-6.9970773],[110.4390389,-6.9965967],[110.4391103,-6.9964656],[110.4392199,-6.9962239],[110.4392605,-6.9960516],[110.4392843,-6.9958779],[110.4393473,-6.9953933],[110.4394466,-6.9948276],[110.4395298,-6.9943404],[110.4396102,-6.9938652],[110.439696,-6.9934259],[110.4398167,-6.992799],[110.4398006,-6.9924262],[110.4398108,-6.992254],[110.4398261,-6.9919298],[110.4399522,-6.9914385],[110.4400407,-6.9907956],[110.4401641,-6.9902312],[110.4402151,-6.9898958],[110.4402633,-6.989539],[110.4403076,-6.9892009],[110.4403813,-6.9886352],[110.4404913,-6.9880309],[110.4405775,-6.987525],[110.4407113,-6.9868261],[110.4407529,-6.9866041],[110.440772,-6.9865022],[110.4408065,-6.9863177],[110.4409379,-6.9858823],[110.4409431,-6.985873],[110.4410692,-6.9853415],[110.4411411,-6.9848922],[110.4411936,-6.9845642],[110.4412179,-6.9844769],[110.4412182,-6.9841985],[110.4412737,-6.9835726],[110.441287,-6.9831084],[110.44133,-6.9825322],[110.4414925,-6.9816026],[110.4415895,-6.9810258],[110.4418681,-6.9796631],[110.4419057,-6.9793113],[110.4419329,-6.9790573],[110.4419843,-6.9786941],[110.4420274,-6.9783872],[110.4420813,-6.978075],[110.442155,-6.9775],[110.4422327,-6.9770758],[110.4422612,-6.9767225],[110.4424626,-6.9755449],[110.4425544,-6.9749979],[110.4426219,-6.9745575],[110.442668,-6.9741093],[110.4426495,-6.9736479],[110.4427515,-6.9730981],[110.442849,-6.9728331],[110.4428992,-6.9727198],[110.4429336,-6.9726419],[110.4430073,-6.9724803],[110.4430787,-6.9718588],[110.4431367,-6.9713333],[110.443188,-6.9709806],[110.4433007,-6.9705003],[110.4434175,-6.9698347],[110.4433975,-6.9694211],[110.4434088,-6.9692331],[110.4435869,-6.9686505],[110.4436219,-6.9683354],[110.4437274,-6.9672965],[110.4438028,-6.9668936],[110.4438628,-6.9664557],[110.4441164,-6.9648891],[110.4440697,-6.9645504],[110.4440568,-6.9644073],[110.4440224,-6.9642294],[110.4438914,-6.9638205],[110.4435889,-6.9632062],[110.443397,-6.9626889],[110.4431908,-6.9622337],[110.4429716,-6.9618602],[110.442717,-6.9613886],[110.4425812,-6.9608966],[110.4424363,-6.9604025],[110.4424309,-6.959883],[110.4419313,-6.9585345],[110.4417627,-6.9580792],[110.4416004,-6.9575041],[110.4411074,-6.9559895],[110.4408975,-6.9553689],[110.4406627,-6.9546746],[110.4405902,-6.9543639],[110.4403122,-6.9531721],[110.4402807,-6.9529726],[110.4402371,-6.9523139],[110.4403137,-6.9518812],[110.4404083,-6.9514899],[110.4406375,-6.9508798],[110.4410881,-6.9499639],[110.4402137,-6.9503261],[110.4397087,-6.9505605],[110.439114,-6.9508266],[110.4382718,-6.9512047],[110.4374751,-6.9514882],[110.4370607,-6.9516666],[110.4365605,-6.9519155],[110.4362279,-6.9521898],[110.4354985,-6.9525889],[110.4352386,-6.9527155],[110.4349628,-6.95284],[110.4307848,-6.9543737],[110.4307852,-6.9549623],[110.4307547,-6.955669]]]}},{"type":"Feature","properties":{"kecamatan":"Gayamsari"},"geometry":{"type":"Polygon","coordinates":[[[110.4384605,-6.9983179],[110.438499,-6.9984269],[110.4386413,-6.9986103],[110.438688,-6.9986446],[110.43894,-6.9988939],[110.4391453,-6.9990746],[110.4392514,-6.9991501],[110.4394036,-6.9992585],[110.4396899,-6.999486],[110.4399389,-6.9996668],[110.4402392,-6.9999021],[110.4404228,-7.0000268],[110.4407171,-7.0002883],[110.4411718,-7.0004667],[110.4419599,-7.0007801],[110.4425366,-7.0009811],[110.4427505,-7.0010437],[110.442847,-7.0010642],[110.4431061,-7.0011606],[110.4432896,-7.0012517],[110.4433706,-7.0012918],[110.4435602,-7.0014229],[110.4439181,-7.0016797],[110.4443607,-7.0019153],[110.4444356,-7.0019568],[110.4446756,-7.0020768],[110.4450756,-7.0022068],[110.4452752,-7.0023449],[110.4454403,-7.0024166],[110.4457302,-7.0025027],[110.4463882,-7.0026625],[110.4467283,-7.0027511],[110.4470446,-7.0028456],[110.447465,-7.0029977],[110.4480134,-7.0032783],[110.448166,-7.0033565],[110.4483761,-7.0034841],[110.4486064,-7.0036618],[110.4487247,-7.0037531],[110.4489868,-7.0040327],[110.4489824,-7.0041367],[110.4489856,-7.0043368],[110.4490594,-7.0047348],[110.4491149,-7.0050929],[110.4491274,-7.0051755],[110.4491594,-7.0052742],[110.4495626,-7.0061985],[110.4516815,-7.0040679],[110.4525972,-7.0031234],[110.4530303,-7.0025023],[110.4532902,-7.0020423],[110.4536013,-7.0012289],[110.4536994,-7.000736],[110.453783,-7.0001859],[110.4538403,-6.999647],[110.4537853,-6.9991456],[110.4537405,-6.9986769],[110.4536748,-6.9981793],[110.4535019,-6.9970581],[110.4534519,-6.9966726],[110.4532693,-6.995084],[110.4531014,-6.9940579],[110.4530496,-6.9937299],[110.4528755,-6.9926264],[110.4527754,-6.9919022],[110.4527259,-6.9916034],[110.4525202,-6.9901031],[110.4524842,-6.9898649],[110.4521653,-6.9875258],[110.4520341,-6.9865631],[110.4516268,-6.9835832],[110.4516071,-6.9834606],[110.4514262,-6.9821154],[110.4514222,-6.982086],[110.4514064,-6.9819179],[110.4513349,-6.9813572],[110.4512713,-6.9808767],[110.4512475,-6.9806765],[110.4512318,-6.9804682],[110.4511283,-6.9798595],[110.4510329,-6.9791777],[110.450927,-6.9785298],[110.4505888,-6.9764601],[110.4501855,-6.9740837],[110.4501594,-6.9739445],[110.4499004,-6.9722082],[110.4494792,-6.9696106],[110.4493525,-6.9688614],[110.4492816,-6.9682684],[110.449296,-6.9677356],[110.4494283,-6.9669631],[110.4494994,-6.9667898],[110.4498473,-6.9659411],[110.4501544,-6.9651919],[110.4506435,-6.964015],[110.4511564,-6.9627809],[110.4511954,-6.962719],[110.4512485,-6.9625882],[110.4514837,-6.9611365],[110.4515004,-6.9606777],[110.4515111,-6.959879],[110.4515433,-6.9584892],[110.4516063,-6.9570994],[110.451698,-6.9553882],[110.4516588,-6.9545189],[110.4514155,-6.953749],[110.4508155,-6.9528285],[110.4504571,-6.9524311],[110.450331,-6.952229],[110.4492567,-6.9515051],[110.4483222,-6.9510415],[110.4480433,-6.9508856],[110.4477769,-6.9507527],[110.4474797,-6.9505928],[110.4464511,-6.9500888],[110.4453312,-6.9494705],[110.4447597,-6.9492413],[110.4441652,-6.9491492],[110.4433648,-6.9491254],[110.4429677,-6.949234],[110.4420376,-6.9495805],[110.4410881,-6.9499639],[110.4406375,-6.9508798],[110.4404083,-6.9514899],[110.4403137,-6.9518812],[110.4402371,-6.9523139],[110.4402807,-6.9529726],[110.4403122,-6.9531721],[110.4405902,-6.9543639],[110.4406627,-6.9546746],[110.4408975,-6.9553689],[110.4411074,-6.9559895],[110.4416004,-6.9575041],[110.4417627,-6.9580792],[110.4419313,-6.9585345],[110.4424309,-6.959883],[110.4424363,-6.9604025],[110.4425812,-6.9608966],[110.442717,-6.9613886],[110.4429716,-6.9618602],[110.4431908,-6.9622337],[110.443397,-6.9626889],[110.4435889,-6.9632062],[110.4438914,-6.9638205],[110.4440224,-6.9642294],[110.4440568,-6.9644073],[110.4440697,-6.9645504],[110.4441164,-6.9648891],[110.4438628,-6.9664557],[110.4438028,-6.9668936],[110.4437274,-6.9672965],[110.4436219,-6.9683354],[110.4435869,-6.9686505],[110.4434088,-6.9692331],[110.4433975,-6.9694211],[110.4434175,-6.9698347],[110.4433007,-6.9705003],[110.443188,-6.9709806],[110.4431367,-6.9713333],[110.4430787,-6.9718588],[110.4430073,-6.9724803],[110.4429336,-6.9726419],[110.4428992,-6.9727198],[110.442849,-6.9728331],[110.4427515,-6.9730981],[110.4426495,-6.9736479],[110.442668,-6.9741093],[110.4426219,-6.9745575],[110.4425544,-6.9749979],[110.4424626,-6.9755449],[110.4422612,-6.9767225],[110.4422327,-6.9770758],[110.442155,-6.9775],[110.4420813,-6.978075],[110.4420274,-6.9783872],[110.4419843,-6.9786941],[110.4419329,-6.9790573],[110.4419057,-6.9793113],[110.4418681,-6.9796631],[110.4415895,-6.9810258],[110.4414925,-6.9816026],[110.44133,-6.9825322],[110.441287,-6.9831084],[110.4412737,-6.9835726],[110.4412182,-6.9841985],[110.4412179,-6.9844769],[110.4411936,-6.9845642],[110.4411411,-6.9848922],[110.4410692,-6.9853415],[110.4409431,-6.985873],[110.4409379,-6.9858823],[110.4408065,-6.9863177],[110.440772,-6.9865022],[110.4407529,-6.9866041],[110.4407113,-6.9868261],[110.4405775,-6.987525],[110.4404913,-6.9880309],[110.4403813,-6.9886352],[110.4403076,-6.9892009],[110.4402633,-6.989539],[110.4402151,-6.9898958],[110.4401641,-6.9902312],[110.4400407,-6.9907956],[110.4399522,-6.9914385],[110.4398261,-6.9919298],[110.4398108,-6.992254],[110.4398006,-6.9924262],[110.4398167,-6.992799],[110.439696,-6.9934259],[110.4396102,-6.9938652],[110.4395298,-6.9943404],[110.4394466,-6.9948276],[110.4393473,-6.9953933],[110.4392843,-6.9958779],[110.4392605,-6.9960516],[110.4392199,-6.9962239],[110.4391103,-6.9964656],[110.4390389,-6.9965967],[110.4387967,-6.9970773],[110.4385835,-6.9974246],[110.438524,-6.997745],[110.4384863,-6.9978815],[110.4384647,-6.9980775],[110.4384605,-6.9983179]]]}},{"type":"Feature","properties":{"kecamatan":"Pedurungan"},"geometry":{"type":"Polygon","coordinates":[[[110.4492816,-6.9682684],[110.4493525,-6.9688614],[110.4494792,-6.9696106],[110.4499004,-6.9722082],[110.4501594,-6.9739445],[110.4501855,-6.9740837],[110.4505888,-6.9764601],[110.450927,-6.9785298],[110.4510329,-6.9791777],[110.4511283,-6.9798595],[110.4512318,-6.9804682],[110.4512475,-6.9806765],[110.4512713,-6.9808767],[110.4513349,-6.9813572],[110.4514064,-6.9819179],[110.4514222,-6.982086],[110.4514262,-6.9821154],[110.4516071,-6.9834606],[110.4516268,-6.9835832],[110.4520341,-6.9865631],[110.4521653,-6.9875258],[110.4524842,-6.9898649],[110.4525202,-6.9901031],[110.4527259,-6.9916034],[110.4527754,-6.9919022],[110.4528755,-6.9926264],[110.4530496,-6.9937299],[110.4531014,-6.9940579],[110.4532693,-6.995084],[110.4534519,-6.9966726],[110.4535019,-6.9970581],[110.4536748,-6.9981793],[110.4537405,-6.9986769],[110.4537853,-6.9991456],[110.4538403,-6.999647],[110.453783,-7.0001859],[110.4536994,-7.000736],[110.4536013,-7.0012289],[110.4532902,-7.0020423],[110.4530303,-7.0025023],[110.4525972,-7.0031234],[110.4516815,-7.0040679],[110.4495626,-7.0061985],[110.4496618,-7.006359],[110.4497905,-7.0065506],[110.4499635,-7.0067889],[110.4501486,-7.0069446],[110.4503725,-7.0070644],[110.4507977,-7.0072761],[110.4511289,-7.0074132],[110.4513261,-7.0074997],[110.4514629,-7.0076408],[110.4516466,-7.0077553],[110.4520731,-7.0078325],[110.4523922,-7.0078591],[110.4526658,-7.0078312],[110.4528992,-7.0078698],[110.4530762,-7.0079483],[110.4532465,-7.0080628],[110.4533981,-7.0082265],[110.4535416,-7.0084222],[110.4536351,-7.008533],[110.453677,-7.0085872],[110.4538085,-7.008699],[110.4539962,-7.0087642],[110.4543141,-7.0088481],[110.4547968,-7.0088867],[110.4550007,-7.0089293],[110.4551777,-7.0089905],[110.4556069,-7.0091489],[110.4560964,-7.009294],[110.4562694,-7.0094111],[110.4566114,-7.0096587],[110.4567307,-7.009913],[110.4568809,-7.0100567],[110.4571478,-7.0101605],[110.4576547,-7.0102897],[110.4580195,-7.0103948],[110.4583441,-7.0104454],[110.4586123,-7.0104361],[110.4587732,-7.0104694],[110.4591165,-7.0106424],[110.4595886,-7.0108993],[110.4601612,-7.0111109],[110.4606038,-7.011248],[110.4610088,-7.0113665],[110.461265,-7.011485],[110.4615413,-7.0116327],[110.4616472,-7.0117605],[110.4616767,-7.0118483],[110.4616955,-7.0119202],[110.4617066,-7.0120034],[110.4616995,-7.0120919],[110.4617357,-7.0124859],[110.4618873,-7.0128986],[110.4621018,-7.0132899],[110.4622748,-7.0137212],[110.4623714,-7.0139421],[110.4625685,-7.0139821],[110.4629776,-7.0140713],[110.4634859,-7.0142256],[110.4637648,-7.0143414],[110.4641189,-7.0145331],[110.4645601,-7.014774],[110.4650429,-7.0149724],[110.4654117,-7.0150842],[110.4659186,-7.0151947],[110.4663894,-7.0154169],[110.4667809,-7.0156006],[110.4671551,-7.0157431],[110.4678404,-7.0159667],[110.4682589,-7.0161104],[110.468802,-7.0163021],[110.4693103,-7.0164805],[110.4696348,-7.0165484],[110.4699232,-7.0166082],[110.47006,-7.0166642],[110.47017,-7.0167573],[110.4702126,-7.01683],[110.4702383,-7.0168838],[110.4703832,-7.0171447],[110.4705736,-7.0173816],[110.4710135,-7.0178368],[110.4714601,-7.0181616],[110.47213,-7.01864],[110.47276,-7.0189],[110.4732,-7.01915],[110.4733224,-7.0192897],[110.4735041,-7.0197101],[110.4736697,-7.0199024],[110.47395,-7.0201],[110.4741941,-7.0201452],[110.4742583,-7.020212],[110.4749267,-7.0205183],[110.4751174,-7.0207283],[110.4752414,-7.0208906],[110.4752315,-7.0211768],[110.4751358,-7.0213389],[110.4751451,-7.021606],[110.4752691,-7.0217111],[110.4755172,-7.0218258],[110.4756591,-7.021845],[110.4759979,-7.0220416],[110.4762748,-7.0226033],[110.4764824,-7.0233261],[110.476796,-7.0240437],[110.4769463,-7.0241805],[110.4771719,-7.0242149],[110.4773973,-7.0243586],[110.4778782,-7.0254008],[110.478185,-7.0258187],[110.4786131,-7.0262307],[110.4790738,-7.0269381],[110.4791817,-7.0282429],[110.4791505,-7.0287039],[110.4793142,-7.0290593],[110.4794025,-7.0295307],[110.4796824,-7.0298726],[110.4797539,-7.0301698],[110.4797466,-7.0305728],[110.4799239,-7.0309896],[110.4801312,-7.0321271],[110.4805978,-7.0336953],[110.480707,-7.0338457],[110.4808321,-7.0351197],[110.4809753,-7.0354204],[110.481385,-7.0359263],[110.4814087,-7.0361006],[110.481203,-7.0365785],[110.481196,-7.0367492],[110.481271,-7.0369679],[110.4813939,-7.037091],[110.482019,-7.0375186],[110.4821515,-7.0379378],[110.4820559,-7.0381914],[110.4815514,-7.0388905],[110.4810914,-7.0394858],[110.4812676,-7.0398294],[110.4815129,-7.0401002],[110.4818534,-7.0402998],[110.4823865,-7.0405616],[110.4831334,-7.040638],[110.4837377,-7.0405994],[110.4840559,-7.0406224],[110.4843011,-7.0399159],[110.4843521,-7.0395565],[110.4843467,-7.0394207],[110.4843387,-7.0392823],[110.4843387,-7.0391652],[110.4843494,-7.0390773],[110.4843762,-7.0389416],[110.4843682,-7.0388245],[110.4843387,-7.0386567],[110.4844272,-7.0384731],[110.4845238,-7.0382708],[110.4846445,-7.037954],[110.4847196,-7.0378342],[110.4848215,-7.0377384],[110.4849663,-7.0376478],[110.4850736,-7.0375227],[110.4850656,-7.0373417],[110.4850146,-7.0371181],[110.4849824,-7.0367028],[110.4850388,-7.0365218],[110.4851648,-7.0363594],[110.4852265,-7.0363195],[110.4853258,-7.0362476],[110.4854679,-7.0361837],[110.4855993,-7.0361039],[110.4856369,-7.0360586],[110.4856262,-7.0359628],[110.4855296,-7.0358696],[110.4853418,-7.035851],[110.4851809,-7.0358403],[110.4849717,-7.035835],[110.4848912,-7.0357765],[110.4847866,-7.0356247],[110.4847759,-7.0355156],[110.4847839,-7.0353638],[110.4848081,-7.035284],[110.4848564,-7.0351562],[110.4848912,-7.0350098],[110.4848832,-7.034874],[110.4848349,-7.0347489],[110.4847491,-7.0346345],[110.484623,-7.0345014],[110.484446,-7.0343895],[110.4843414,-7.0343283],[110.4841697,-7.0343044],[110.4840168,-7.0342964],[110.48388,-7.0342671],[110.4837674,-7.0342751],[110.4836977,-7.0342937],[110.4836252,-7.034331],[110.4835743,-7.0343363],[110.4835179,-7.0342698],[110.4835032,-7.0340874],[110.4835099,-7.0338864],[110.4835233,-7.0337347],[110.4835099,-7.033535],[110.4834509,-7.033165],[110.4835179,-7.03296],[110.4836011,-7.032771],[110.4836789,-7.0326885],[110.4838103,-7.0326193],[110.4839605,-7.0326406],[110.4840249,-7.0326779],[110.4842046,-7.0327311],[110.4843146,-7.0327125],[110.4845238,-7.0326566],[110.4846364,-7.0326033],[110.4848295,-7.0325474],[110.4849851,-7.0324968],[110.4850253,-7.0323691],[110.4850736,-7.032212],[110.4851139,-7.0320443],[110.4851299,-7.0319458],[110.4851139,-7.0318846],[110.4850441,-7.0317808],[110.4849556,-7.0317249],[110.4848269,-7.0317036],[110.4847276,-7.0317115],[110.4845613,-7.0317621],[110.4843414,-7.0317941],[110.4841188,-7.0318234],[110.483931,-7.03181],[110.4837701,-7.0317541],[110.4836252,-7.0317142],[110.4834804,-7.0316836],[110.4834522,-7.0316676],[110.483357,-7.0316104],[110.48329,-7.0315265],[110.4832846,-7.0314427],[110.4832953,-7.0314107],[110.4833221,-7.0312537],[110.4833114,-7.0310993],[110.4832497,-7.0309955],[110.4831853,-7.0309103],[110.483121,-7.0308624],[110.4830298,-7.0308065],[110.4829842,-7.0307745],[110.4828957,-7.0307479],[110.482783,-7.0306946],[110.4827321,-7.0305828],[110.482724,-7.0304444],[110.4827535,-7.0303273],[110.482842,-7.0302315],[110.4829895,-7.0301835],[110.4832122,-7.0301463],[110.4833516,-7.0301543],[110.483526,-7.0301649],[110.4836333,-7.0301356],[110.4837191,-7.030085],[110.4838425,-7.0300531],[110.4839551,-7.0300771],[110.4841322,-7.0301223],[110.4843414,-7.030117],[110.4843923,-7.0300744],[110.4844406,-7.0299945],[110.4844594,-7.0299386],[110.4844674,-7.0298455],[110.4844272,-7.0297629],[110.4843414,-7.0296325],[110.484167,-7.0294861],[110.4840195,-7.0294009],[110.4838747,-7.0293477],[110.4837781,-7.0293477],[110.4836896,-7.0293477],[110.4836038,-7.0293716],[110.4834911,-7.0294115],[110.4832953,-7.0294408],[110.4832014,-7.0294089],[110.4831505,-7.0293982],[110.4831183,-7.029369],[110.4830486,-7.0292971],[110.4830217,-7.0291933],[110.4830459,-7.0291347],[110.4831666,-7.0290548],[110.4832953,-7.0290016],[110.483416,-7.028975],[110.4836252,-7.0289137],[110.4837084,-7.0288286],[110.4837245,-7.0286688],[110.4836574,-7.0284931],[110.483593,-7.0283361],[110.484269,-7.028211],[110.4854116,-7.028163],[110.4864415,-7.0282083],[110.4866695,-7.0282988],[110.4868707,-7.0279634],[110.4874474,-7.0281125],[110.4876298,-7.0276652],[110.4876969,-7.0275268],[110.4879275,-7.0275827],[110.4881716,-7.0277105],[110.488354,-7.0277211],[110.4885364,-7.0275854],[110.489274,-7.027793],[110.4894709,-7.0278295],[110.4900491,-7.0279368],[110.4907009,-7.0280592],[110.4911864,-7.0282482],[110.4915165,-7.0283843],[110.4915673,-7.0284053],[110.4920259,-7.0285198],[110.4927769,-7.0287433],[110.492388,-7.0298721],[110.4927984,-7.0300691],[110.4935253,-7.0303273],[110.4941824,-7.0305695],[110.4944721,-7.0297283],[110.4945713,-7.029558],[110.494751,-7.0295606],[110.495486,-7.0298455],[110.4955611,-7.0296272],[110.4957944,-7.0289444],[110.4958251,-7.0288368],[110.4958991,-7.028577],[110.4957783,-7.0282402],[110.4957274,-7.0281071],[110.4958937,-7.0276466],[110.4959768,-7.0274762],[110.496363,-7.0275454],[110.4967412,-7.027628],[110.4968029,-7.0274656],[110.4969639,-7.0272313],[110.497098,-7.0271195],[110.4973286,-7.0271142],[110.4974896,-7.0271568],[110.4977658,-7.0271834],[110.4980314,-7.0271515],[110.4982513,-7.0270822],[110.4983479,-7.027029],[110.4983586,-7.0268293],[110.4983506,-7.0265738],[110.4983693,-7.0264593],[110.4984176,-7.0263422],[110.4985303,-7.0262943],[110.4987019,-7.0263102],[110.498895,-7.0263422],[110.4990292,-7.0263289],[110.4991472,-7.026289],[110.499233,-7.0261825],[110.4992706,-7.0259668],[110.499292,-7.0258324],[110.499284,-7.0257139],[110.4992786,-7.0256128],[110.4992464,-7.0255409],[110.4991525,-7.0254957],[110.4990453,-7.025477],[110.4989272,-7.025509],[110.4988441,-7.0255782],[110.4987583,-7.0256447],[110.4986697,-7.02569],[110.4985812,-7.0256767],[110.4984096,-7.0254877],[110.4981789,-7.0252454],[110.4980153,-7.0250777],[110.4978543,-7.0248062],[110.497849,-7.0246784],[110.4978946,-7.0245266],[110.497908,-7.0244388],[110.4979777,-7.0243669],[110.4980609,-7.0242897],[110.4981708,-7.0242551],[110.4982835,-7.0241939],[110.4983479,-7.02413],[110.4983479,-7.0240262],[110.498313,-7.0239117],[110.4982868,-7.023752],[110.4982513,-7.0235656],[110.4983747,-7.023358],[110.4985356,-7.0231024],[110.4986536,-7.022783],[110.49871,-7.0224689],[110.4987663,-7.0219577],[110.4988307,-7.0215052],[110.4989433,-7.0211298],[110.499123,-7.0209621],[110.4994369,-7.0207385],[110.4997158,-7.0204111],[110.4996836,-7.0199905],[110.4997238,-7.0197296],[110.4999009,-7.0194341],[110.5000323,-7.0190587],[110.5001852,-7.0186115],[110.5003247,-7.018292],[110.5005795,-7.0178874],[110.5008101,-7.0175067],[110.5010435,-7.0170754],[110.5012313,-7.0168332],[110.5016276,-7.016557],[110.5022559,-7.0161623],[110.5027252,-7.0158296],[110.5035406,-7.0152945],[110.503947,-7.0150336],[110.5040288,-7.0143068],[110.5044097,-7.013242],[110.5049783,-7.0117033],[110.5048871,-7.0112081],[110.5042434,-7.0102391],[110.5028272,-7.0096853],[110.5024087,-7.0098025],[110.50125,-7.009302],[110.50022,-7.0086737],[110.4986107,-7.0068741],[110.4969263,-7.0062991],[110.4953867,-7.0057294],[110.4947805,-7.0056921],[110.4938364,-7.0052821],[110.4923826,-7.0051543],[110.4920447,-7.0051676],[110.4909772,-7.005133],[110.4909557,-7.004345],[110.491181,-7.003738],[110.4917121,-7.0026519],[110.492447,-7.0012835],[110.4933134,-7.000152],[110.4920666,-6.9990276],[110.4909863,-6.9980533],[110.4908189,-6.9979024],[110.489569,-6.9967764],[110.4890674,-6.996361],[110.488193,-6.9955278],[110.4871684,-6.9946519],[110.4869048,-6.9944213],[110.4866374,-6.9941514],[110.48583,-6.9934512],[110.4850173,-6.9926898],[110.4842341,-6.9919603],[110.4834482,-6.9912895],[110.4825282,-6.9904429],[110.4819086,-6.9899024],[110.4812595,-6.9893247],[110.4806936,-6.9888206],[110.4805541,-6.9886964],[110.4799419,-6.9881624],[110.4794919,-6.9877699],[110.4786787,-6.9872154],[110.4765778,-6.9853262],[110.4748413,-6.9836914],[110.4743475,-6.9832387],[110.4739531,-6.9828859],[110.4738298,-6.9827755],[110.4731056,-6.9821711],[110.4725477,-6.9816653],[110.4718181,-6.9809864],[110.4713917,-6.9806083],[110.4707265,-6.9800333],[110.4705897,-6.9799117],[110.4698279,-6.9792346],[110.4691279,-6.9785929],[110.4688248,-6.9783294],[110.4681677,-6.9777516],[110.4676098,-6.9772431],[110.4670733,-6.9767746],[110.4666039,-6.9763566],[110.4661506,-6.9759466],[110.4658774,-6.9756486],[110.4655364,-6.9753821],[110.4650885,-6.9749881],[110.4646835,-6.9746127],[110.4643294,-6.9742959],[110.463962,-6.9739738],[110.4634282,-6.9735052],[110.4631063,-6.973207],[110.4626757,-6.9728372],[110.4625297,-6.9727118],[110.4620321,-6.9722525],[110.4613227,-6.9716109],[110.4609042,-6.9712395],[110.4603906,-6.9707736],[110.4598381,-6.9702744],[110.459408,-6.9698881],[110.4590052,-6.9695263],[110.4582328,-6.9688154],[110.4577609,-6.9683126],[110.4572974,-6.9678719],[110.4558308,-6.9666083],[110.4553434,-6.966189],[110.4552019,-6.9660625],[110.4548129,-6.9657124],[110.4543167,-6.9652691],[110.4538849,-6.964883],[110.4533994,-6.9644637],[110.4529287,-6.9640497],[110.4525384,-6.9637156],[110.452238,-6.9634533],[110.4517807,-6.9630579],[110.4513904,-6.9627171],[110.4512485,-6.9625882],[110.4511954,-6.962719],[110.4511564,-6.9627809],[110.4506435,-6.964015],[110.4501544,-6.9651919],[110.4498473,-6.9659411],[110.4494994,-6.9667898],[110.4494283,-6.9669631],[110.449296,-6.9677356],[110.4492816,-6.9682684]]]}},{"type":"Feature","properties":{"kecamatan":"Tugu"},"geometry":{"type":"Polygon","coordinates":[[[110.2874136,-6.9674083],[110.2878267,-6.9675521],[110.2880949,-6.9676639],[110.28817,-6.9677012],[110.2878991,-6.9681725],[110.2877918,-6.9684426],[110.2877421,-6.9687195],[110.28771,-6.9689166],[110.2891999,-6.9695755],[110.2899563,-6.969911],[110.2908061,-6.9703918],[110.2922094,-6.9712102],[110.2932179,-6.97178],[110.2942908,-6.9722858],[110.2960181,-6.9728715],[110.2978957,-6.9734413],[110.2986038,-6.9736063],[110.2996123,-6.9736383],[110.3003523,-6.9736148],[110.3009534,-6.9735957],[110.3023917,-6.9734223],[110.3024554,-6.9734147],[110.302964,-6.9733432],[110.3035927,-6.9732549],[110.3051752,-6.9730526],[110.305263,-6.9730415],[110.3062266,-6.9729195],[110.3072351,-6.972813],[110.3085118,-6.9726692],[110.3090215,-6.9726426],[110.3100246,-6.9725946],[110.3107113,-6.9725414],[110.3117359,-6.9724615],[110.3121436,-6.9724456],[110.3124869,-6.9724402],[110.3127283,-6.9724775],[110.3130233,-6.9725893],[110.3136188,-6.9728928],[110.3137368,-6.9729993],[110.3142357,-6.973585],[110.3145683,-6.974011],[110.3150082,-6.9743305],[110.3155875,-6.9746074],[110.3162312,-6.9749269],[110.3172934,-6.9752464],[110.3183234,-6.97547],[110.3196645,-6.9756297],[110.3209412,-6.9757362],[110.3225076,-6.9759386],[110.323323,-6.9760025],[110.3240847,-6.9759918],[110.3252649,-6.9759812],[110.3263386,-6.9760018],[110.3269279,-6.9760131],[110.3285372,-6.9760451],[110.329256,-6.9761516],[110.3296423,-6.9762048],[110.3300822,-6.9763645],[110.3304148,-6.9764817],[110.3312838,-6.9772804],[110.3314562,-6.9774649],[110.331831,-6.9778661],[110.3326571,-6.9786435],[110.3331828,-6.9792292],[110.3340518,-6.9802303],[110.3344002,-6.9806423],[110.3353393,-6.9817531],[110.3363124,-6.9828816],[110.3364229,-6.9830097],[110.3373992,-6.9840747],[110.3379464,-6.9845113],[110.338393,-6.9847322],[110.3387725,-6.9848946],[110.3402531,-6.985459],[110.3405611,-6.9855639],[110.3413474,-6.9858318],[110.3414442,-6.9858578],[110.3420985,-6.9860341],[110.3426349,-6.9860448],[110.343343,-6.9859915],[110.344609,-6.9858744],[110.3461806,-6.9857361],[110.3463042,-6.9857253],[110.3467065,-6.98568],[110.3470954,-6.985648],[110.347943,-6.9854031],[110.3480895,-6.9852976],[110.3485787,-6.9850224],[110.348922,-6.9847562],[110.3489953,-6.9846436],[110.3492546,-6.984245],[110.3498232,-6.9833718],[110.3503275,-6.9827648],[110.3506601,-6.9825412],[110.3510141,-6.9824453],[110.3511646,-6.9824417],[110.351454,-6.9824347],[110.3517387,-6.9825009],[110.3519382,-6.9825473],[110.3526449,-6.9827115],[110.3536856,-6.9829884],[110.3552306,-6.9836806],[110.3560674,-6.984064],[110.3565793,-6.984474],[110.356679,-6.9845539],[110.3570866,-6.9849798],[110.3574016,-6.9854984],[110.3575265,-6.985704],[110.3577626,-6.9859702],[110.3580737,-6.9861832],[110.3585458,-6.9863216],[110.3597581,-6.9865666],[110.3605715,-6.9866584],[110.3607023,-6.9866731],[110.3615177,-6.9867263],[110.3619933,-6.9867815],[110.3620809,-6.9867779],[110.3623009,-6.9867689],[110.3631902,-6.9869673],[110.3632557,-6.9869819],[110.3636473,-6.9859702],[110.3640121,-6.9849745],[110.3641891,-6.9844687],[110.3641409,-6.9844421],[110.3641033,-6.9839841],[110.3641248,-6.9837605],[110.3641838,-6.9835422],[110.364114,-6.9835049],[110.364114,-6.9833878],[110.3641355,-6.9831854],[110.3642374,-6.9827914],[110.3644144,-6.9828713],[110.3646827,-6.9819288],[110.364767,-6.9815611],[110.3649188,-6.9809649],[110.3642357,-6.980775],[110.3644663,-6.97998],[110.3647524,-6.9790801],[110.3649777,-6.9784518],[110.3652459,-6.9777277],[110.3653524,-6.9774166],[110.3654391,-6.9771633],[110.3656107,-6.9767266],[110.3657287,-6.9763646],[110.3659326,-6.9757256],[110.3662062,-6.9749695],[110.3663474,-6.9744042],[110.366528,-6.9736809],[110.3664315,-6.9715723],[110.3666675,-6.9706777],[110.3670859,-6.9694424],[110.367233,-6.9688638],[110.3673863,-6.9682603],[110.3642535,-6.9658108],[110.3655525,-6.9609229],[110.3666138,-6.956929],[110.3669189,-6.9541242],[110.3669143,-6.9526903],[110.3667641,-6.9487498],[110.3644681,-6.9506668],[110.363009,-6.9518383],[110.361464,-6.9530311],[110.360949,-6.9537766],[110.3603696,-6.953947],[110.3592109,-6.9539896],[110.3564,-6.9538405],[110.3542006,-6.9536701],[110.3477591,-6.9546101],[110.3447712,-6.960217],[110.3387987,-6.9584946],[110.3331828,-6.9470032],[110.3298998,-6.9455974],[110.3266168,-6.9442928],[110.3255117,-6.9437123],[110.3241867,-6.9429562],[110.3226471,-6.9419071],[110.3214776,-6.9410604],[110.3212523,-6.9410391],[110.3209197,-6.9409113],[110.3204819,-6.9407358],[110.3198039,-6.940464],[110.3183019,-6.9397931],[110.3181302,-6.939857],[110.318023,-6.9398889],[110.3174972,-6.9396333],[110.3160596,-6.9389304],[110.314461,-6.9380784],[110.3142531,-6.9379788],[110.3143966,-6.9378334],[110.3120041,-6.9369601],[110.3099871,-6.936152],[110.3090966,-6.9365021],[110.3075302,-6.9368962],[110.3069401,-6.936992],[110.3059745,-6.936779],[110.3056097,-6.9372583],[110.3054595,-6.9375352],[110.3052342,-6.9378334],[110.3049552,-6.9382062],[110.3047299,-6.938302],[110.30429,-6.9381742],[110.3038072,-6.9380145],[110.3033459,-6.938121],[110.3026485,-6.9384511],[110.3018439,-6.9388878],[110.3015005,-6.9391328],[110.3012752,-6.9394949],[110.3010821,-6.9398996],[110.3008675,-6.940038],[110.3003418,-6.9399954],[110.2999663,-6.9400274],[110.2997732,-6.9402084],[110.2993655,-6.940496],[110.2991402,-6.9406664],[110.2989578,-6.9409752],[110.298754,-6.94138],[110.2984214,-6.9419977],[110.2982604,-6.9424556],[110.2980673,-6.9428284],[110.2978849,-6.9432437],[110.2976704,-6.9436165],[110.2974129,-6.9439892],[110.2970695,-6.9443087],[110.2968228,-6.9445963],[110.2965224,-6.9447987],[110.2964044,-6.9449371],[110.2963722,-6.9451075],[110.2962327,-6.9453099],[110.2958572,-6.945672],[110.2949452,-6.9465666],[110.2945483,-6.9470352],[110.2943981,-6.947163],[110.2940655,-6.9471204],[110.2938723,-6.9472056],[110.2936578,-6.9476422],[110.2930462,-6.9486753],[110.29266,-6.9492717],[110.2918982,-6.9499959],[110.2915764,-6.9503899],[110.2918982,-6.9507094],[110.2926278,-6.951423],[110.2931428,-6.9519022],[110.2927458,-6.9521791],[110.2919304,-6.952914],[110.2923596,-6.9531589],[110.2926814,-6.9534039],[110.2924347,-6.9536914],[110.2921665,-6.9540642],[110.2918446,-6.9547671],[110.2915656,-6.9554061],[110.2914905,-6.9555871],[110.2922416,-6.9557681],[110.2935719,-6.9560983],[110.2932608,-6.9567799],[110.3001058,-6.9590909],[110.2990834,-6.9612034],[110.2966302,-6.9664504],[110.2956748,-6.9684733],[110.2952886,-6.9683774],[110.2945697,-6.9681751],[110.2941628,-6.9680062],[110.2939796,-6.9679301],[110.2932286,-6.9676107],[110.2922094,-6.967174],[110.2897107,-6.9657708],[110.2895915,-6.9657097],[110.2890551,-6.9655233],[110.288052,-6.9653476],[110.2879608,-6.9658002],[110.2878374,-6.9663008],[110.2876389,-6.9668119],[110.2874136,-6.9674083]]]}},{"type":"Feature","properties":{"kecamatan":"Semarang Barat"},"geometry":{"type":"Polygon","coordinates":[[[110.3632557,-6.9869819],[110.3650045,-6.9875782],[110.3654386,-6.9877317],[110.3655168,-6.9877593],[110.3667104,-6.9879456],[110.3681801,-6.9877314],[110.3683573,-6.9882438],[110.3687864,-6.9896335],[110.3690547,-6.9906186],[110.3693014,-6.9918592],[110.36928,-6.9925407],[110.3691566,-6.9933554],[110.3690649,-6.9936231],[110.3689688,-6.9939038],[110.3687864,-6.9945374],[110.3686953,-6.9948995],[110.368706,-6.9953467],[110.3687489,-6.9956875],[110.368883,-6.9961667],[110.3690815,-6.9966299],[110.3692853,-6.9970559],[110.3695428,-6.9975031],[110.3698325,-6.9978333],[110.370208,-6.9982432],[110.3705513,-6.9987011],[110.3708303,-6.9992123],[110.3709269,-6.9995743],[110.3709966,-6.999979],[110.3710515,-7.0003241],[110.3711092,-7.0006872],[110.3712273,-7.0010971],[110.3713936,-7.0015337],[110.371592,-7.0018053],[110.3717637,-7.0020183],[110.3719515,-7.002194],[110.3722358,-7.0023856],[110.3725952,-7.0025613],[110.3730941,-7.0027051],[110.3737432,-7.0029074],[110.3743762,-7.0030885],[110.3747678,-7.0032269],[110.3751701,-7.0034239],[110.3754691,-7.0036599],[110.3756154,-7.0037753],[110.3759479,-7.0041533],[110.376597,-7.0049041],[110.3773427,-7.0057134],[110.3785524,-7.0068581],[110.3795636,-7.0080241],[110.3796563,-7.0081323],[110.3806043,-7.0092381],[110.3812265,-7.0100101],[110.3816872,-7.0105186],[110.3818488,-7.010697],[110.3819082,-7.0107489],[110.3822994,-7.011091],[110.3823483,-7.0111274],[110.3827071,-7.0113945],[110.3831738,-7.0117192],[110.3837594,-7.012167],[110.3851765,-7.0132219],[110.3854537,-7.0134283],[110.386304,-7.0140726],[110.3871167,-7.0146423],[110.387522,-7.0149403],[110.3875127,-7.0148598],[110.3875243,-7.0142441],[110.387585,-7.0136312],[110.387451,-7.0130628],[110.3871676,-7.0123897],[110.3868605,-7.0117998],[110.3866964,-7.0115119],[110.3866638,-7.0112078],[110.386748,-7.0109134],[110.3872304,-7.0101022],[110.3877254,-7.0092207],[110.3879549,-7.0088076],[110.3881154,-7.0085185],[110.3886853,-7.0076072],[110.3887632,-7.0073226],[110.388948,-7.0067722],[110.3889936,-7.0066692],[110.3890624,-7.0065239],[110.3891724,-7.0062447],[110.3892809,-7.006094],[110.3894029,-7.0059587],[110.3895531,-7.0058807],[110.3897677,-7.005848],[110.3901824,-7.0058174],[110.3904356,-7.0057981],[110.3906258,-7.0057854],[110.3909146,-7.005796],[110.3912453,-7.0058232],[110.3914448,-7.0058344],[110.3915556,-7.005857],[110.391808,-7.0059183],[110.3920399,-7.0059789],[110.3923704,-7.0060277],[110.3928174,-7.006134],[110.3928675,-7.006144],[110.3929836,-7.0061671],[110.3931909,-7.0061771],[110.3936909,-7.0062027],[110.3938921,-7.0061156],[110.3939693,-7.0061029],[110.394258,-7.0060094],[110.3945468,-7.0058622],[110.3949241,-7.0056666],[110.3952548,-7.0052356],[110.3954222,-7.0050039],[110.3955371,-7.0047998],[110.3956139,-7.0046121],[110.3957245,-7.0043731],[110.3959175,-7.004162],[110.3962025,-7.0038597],[110.39624,-7.0038159],[110.3962568,-7.0037671],[110.3963886,-7.0035665],[110.3965876,-7.003277],[110.396812,-7.0029156],[110.3969092,-7.0027355],[110.3970314,-7.0025818],[110.3970998,-7.002473],[110.3972156,-7.0022591],[110.3973568,-7.002066],[110.3974276,-7.0020157],[110.3976014,-7.0018923],[110.398191,-7.0016537],[110.3983546,-7.0016105],[110.399038,-7.00143],[110.39934,-7.0013969],[110.3994622,-7.0014023],[110.3994925,-7.001394],[110.3995951,-7.0013972],[110.4000648,-7.0013643],[110.4004406,-7.0013916],[110.4007508,-7.0013524],[110.4009871,-7.0011483],[110.401166,-7.0008696],[110.4015195,-7.0004422],[110.4016099,-7.0001326],[110.4016436,-6.9999851],[110.4014864,-6.999586],[110.4013123,-6.9993377],[110.4011113,-6.9990424],[110.4010284,-6.9986474],[110.4009912,-6.9984109],[110.4009795,-6.9982025],[110.4011902,-6.9976915],[110.4013692,-6.9972361],[110.4015202,-6.9967733],[110.4016616,-6.996398],[110.4019476,-6.9957916],[110.4020316,-6.9955636],[110.402298,-6.994793],[110.4024428,-6.993957],[110.4024557,-6.9935124],[110.4024911,-6.9922958],[110.4025266,-6.9908556],[110.4025131,-6.9905556],[110.4024157,-6.98839],[110.4023112,-6.9860661],[110.4022872,-6.9857146],[110.4022335,-6.9851178],[110.4021263,-6.9839256],[110.4019952,-6.9818043],[110.4019493,-6.9810609],[110.4017293,-6.9794848],[110.4014852,-6.9774881],[110.4014021,-6.9765323],[110.4013002,-6.9751106],[110.4012616,-6.9748035],[110.4011553,-6.9739578],[110.4010615,-6.97301],[110.4010209,-6.9726645],[110.4009542,-6.9720968],[110.4008549,-6.9714019],[110.4007637,-6.9707523],[110.4007161,-6.9701501],[110.400694,-6.969871],[110.4006001,-6.968673],[110.4005787,-6.968452],[110.4003972,-6.9673749],[110.4003319,-6.9669877],[110.4002166,-6.9658282],[110.4001624,-6.9645964],[110.4000878,-6.9629035],[110.4000727,-6.9626479],[110.3999805,-6.9610824],[110.3994028,-6.9586479],[110.3991705,-6.9576692],[110.3983873,-6.9553155],[110.397867,-6.9540535],[110.3973681,-6.9529939],[110.3963811,-6.9508798],[110.3937846,-6.9455229],[110.3925562,-6.9461086],[110.3908396,-6.9470884],[110.3889513,-6.9486859],[110.3905177,-6.9509437],[110.3871059,-6.9517105],[110.3863549,-6.9514762],[110.385561,-6.9490693],[110.3855824,-6.9481108],[110.3861832,-6.9478552],[110.386827,-6.9480043],[110.3871059,-6.9476848],[110.3865909,-6.9470032],[110.3863978,-6.9464707],[110.3831148,-6.9473866],[110.3822243,-6.9475464],[110.3813553,-6.947525],[110.3808081,-6.9469393],[110.3805399,-6.9466198],[110.3800034,-6.9463429],[110.379349,-6.9463216],[110.3788769,-6.946311],[110.378319,-6.9464388],[110.377804,-6.9465346],[110.377289,-6.9466198],[110.3763342,-6.9466944],[110.3734481,-6.9468754],[110.3686631,-6.9472588],[110.3667641,-6.9487498],[110.3669143,-6.9526903],[110.3669189,-6.9541242],[110.3666138,-6.956929],[110.3655525,-6.9609229],[110.3642535,-6.9658108],[110.3673863,-6.9682603],[110.367233,-6.9688638],[110.3670859,-6.9694424],[110.3666675,-6.9706777],[110.3664315,-6.9715723],[110.366528,-6.9736809],[110.3663474,-6.9744042],[110.3662062,-6.9749695],[110.3659326,-6.9757256],[110.3657287,-6.9763646],[110.3656107,-6.9767266],[110.3654391,-6.9771633],[110.3653524,-6.9774166],[110.3652459,-6.9777277],[110.3649777,-6.9784518],[110.3647524,-6.9790801],[110.3644663,-6.97998],[110.3642357,-6.980775],[110.3649188,-6.9809649],[110.364767,-6.9815611],[110.3646827,-6.9819288],[110.3644144,-6.9828713],[110.3642374,-6.9827914],[110.3641355,-6.9831854],[110.364114,-6.9833878],[110.364114,-6.9835049],[110.3641838,-6.9835422],[110.3641248,-6.9837605],[110.3641033,-6.9839841],[110.3641409,-6.9844421],[110.3641891,-6.9844687],[110.3640121,-6.9849745],[110.3636473,-6.9859702],[110.3632557,-6.9869819]]]}},{"type":"Feature","properties":{"kecamatan":"Semarang Tengah"},"geometry":{"type":"Polygon","coordinates":[[[110.4014852,-6.9774881],[110.4017293,-6.9794848],[110.4019493,-6.9810609],[110.4022653,-6.9812027],[110.4042989,-6.9821152],[110.4066217,-6.9832147],[110.4068945,-6.9833473],[110.4088325,-6.9842912],[110.4091395,-6.9844384],[110.4095963,-6.9846604],[110.4098306,-6.9847623],[110.4114443,-6.9854644],[110.4128927,-6.9861193],[110.4137886,-6.986492],[110.4138333,-6.9865045],[110.4139218,-6.9865293],[110.416165,-6.9871576],[110.4172808,-6.9874877],[110.4174891,-6.9875659],[110.4187453,-6.9880894],[110.4196917,-6.9885433],[110.4208213,-6.9890851],[110.4223931,-6.9898252],[110.4227203,-6.9891383],[110.4237503,-6.9896535],[110.4239904,-6.9898206],[110.4237268,-6.9905143],[110.4239762,-6.9906328],[110.4255044,-6.9913587],[110.4287606,-6.9929616],[110.4288357,-6.9929986],[110.4311344,-6.9941035],[110.4319927,-6.9942925],[110.4320209,-6.9935084],[110.43199,-6.9922372],[110.4319578,-6.9914758],[110.4319355,-6.9909274],[110.4319176,-6.9904854],[110.4318593,-6.9892522],[110.4317996,-6.9882624],[110.4317245,-6.9871603],[110.4317036,-6.9868286],[110.4316601,-6.9861379],[110.4316065,-6.9855016],[110.4316034,-6.9854053],[110.4315636,-6.9841705],[110.4315488,-6.9831163],[110.4315475,-6.9830204],[110.4315126,-6.9821738],[110.4314975,-6.9816734],[110.4314858,-6.9812846],[110.4314643,-6.9807388],[110.4314532,-6.9802742],[110.4314455,-6.9799534],[110.431408,-6.97916],[110.4313651,-6.9784758],[110.431335,-6.9781503],[110.4313252,-6.9780438],[110.4313061,-6.9778368],[110.4312766,-6.9770408],[110.4312511,-6.9763828],[110.4312444,-6.9762101],[110.4311907,-6.9755951],[110.4311829,-6.975233],[110.4311666,-6.9744716],[110.4311934,-6.9740137],[110.4311865,-6.9737274],[110.4311855,-6.9736865],[110.4311818,-6.9735322],[110.4311794,-6.9734329],[110.4311766,-6.9733558],[110.4311666,-6.9729008],[110.4311444,-6.9723903],[110.4311405,-6.9722994],[110.4310874,-6.9718589],[110.4310888,-6.9711011],[110.4310718,-6.9707409],[110.4310593,-6.9704754],[110.4310083,-6.9697725],[110.4310291,-6.9688141],[110.4309868,-6.9674802],[110.4309869,-6.9671155],[110.4303431,-6.9675574],[110.4296459,-6.967901],[110.4295868,-6.9679301],[110.4294447,-6.9679869],[110.4291901,-6.9680894],[110.4290949,-6.9681276],[110.4289844,-6.9681719],[110.4288572,-6.968223],[110.4287261,-6.9682441],[110.4285201,-6.9683036],[110.428412,-6.9683295],[110.4277682,-6.9684307],[110.4275475,-6.9684418],[110.4270279,-6.968468],[110.4260141,-6.9685957],[110.4250056,-6.9687342],[110.4248473,-6.9688753],[110.4246435,-6.969067],[110.4243028,-6.9694291],[110.4239729,-6.9698018],[110.4236591,-6.96969],[110.4233319,-6.9697299],[110.4228786,-6.9697905],[110.4227525,-6.9698204],[110.4221892,-6.9700308],[110.4214141,-6.9703556],[110.420769,-6.9706831],[110.4205675,-6.9707736],[110.4201628,-6.9709613],[110.420003,-6.9710352],[110.4197095,-6.9711756],[110.4195529,-6.9712662],[110.4192349,-6.97145],[110.4190993,-6.9715284],[110.4186004,-6.971784],[110.4181565,-6.9720009],[110.4176094,-6.9722472],[110.4172919,-6.9724038],[110.4169589,-6.972568],[110.416224,-6.9729008],[110.4156916,-6.9731298],[110.4151458,-6.97342],[110.4150818,-6.9734476],[110.4147193,-6.9736037],[110.4141292,-6.9738779],[110.4138717,-6.9740177],[110.4137148,-6.9741788],[110.4135941,-6.9743824],[110.4133983,-6.9747938],[110.4131716,-6.9747152],[110.4129423,-6.9745861],[110.412709,-6.9744064],[110.4125668,-6.9741894],[110.4122932,-6.974425],[110.4118413,-6.9747924],[110.4115462,-6.9750174],[110.4112133,-6.9752655],[110.4111318,-6.9753262],[110.4106071,-6.9757096],[110.4104163,-6.9758331],[110.4100335,-6.9760424],[110.4096113,-6.9762671],[110.4095533,-6.976298],[110.4092419,-6.9764366],[110.4089941,-6.9765469],[110.4084979,-6.976704],[110.4079668,-6.9768571],[110.4074746,-6.9769569],[110.4068939,-6.9770541],[110.4061013,-6.9771153],[110.4053798,-6.9771686],[110.4049561,-6.9772087],[110.4047884,-6.9772245],[110.4042533,-6.9772671],[110.4037008,-6.9773177],[110.4030168,-6.9773576],[110.4026246,-6.9773911],[110.4024562,-6.9774055],[110.4014852,-6.9774881]]]}}]}